IRIDIUM 136             
1 42962U 17061H   24146.59075733  .00000391  00000+0  13246-3 0  9995
2 42962  86.3963 339.7707 0002132  79.0944 281.0491 14.34219895346966
